NORAD_CAT_ID,OBJECT_NAME,OBJECT_TYPE,EPOCH,MEAN_MOTION,ECCENTRICITY,INCLINATION,RA_OF_ASC_NODE,ARG_OF_PERICENTER,MEAN_ANOMALY,BSTAR,MEAN_MOTION_DOT,MEAN_MOTION_DDOT,TLE_LINE0,TLE_LINE1,TLE_LINE2,SEMIMAJOR_AXIS,PERIOD,APOGEE,PERIGEE,DECAYED
52121.0,STARLINK-3678,PAYLOAD,2023-03-31 13:14:42,15.08846143,0.0001476,53.2158,211.1169,81.3992,278.7167,0.00019184,2.767e-05,0.0,0 STARLINK-3678,1 52121U 22029AK  23090.55187918  .00002767  00000-0  19184-3 0  9992,2 52121  53.2158 211.1169 0001476  81.3992 278.7167 15.08846143 58762,6917.862,95.437,540.748,538.706,0.0
52121.0,STARLINK-3678,PAYLOAD,2023-04-01 06:43:57,15.08834703,0.0001773,53.2172,207.8458,108.688,251.4305,-4.7471e-05,-1.043e-05,0.0,0 STARLINK-3678,1 52121U 22029AK  23091.28052348 -.00001043  00000-0 -47471-4 0  9990,2 52121  53.2172 207.8458 0001773 108.6880 251.4305 15.08834703 58873,6917.897,95.438,540.988,538.535,0.0
52121.0,STARLINK-3678,PAYLOAD,2023-04-01 13:05:30,15.08834306,0.0002072,53.218,206.6543,123.2329,236.8862,-0.00039808,-6.617e-05,0.0,0 STARLINK-3678,1 52121U 22029AK  23091.54548668 -.00006617  00000-0 -39808-3 0  9990,2 52121  53.2180 206.6543 0002072 123.2329 236.8862 15.08834306 58917,6917.898,95.438,541.196,538.329,0.0
52121.0,STARLINK-3678,PAYLOAD,2023-04-01 17:51:39,15.08833087,0.000141,53.2151,205.7574,113.2681,246.846,-5.4207e-05,-1.15e-05,0.0,0 STARLINK-3678,1 52121U 22029AK  23091.74420659 -.00001150  00000-0 -54207-4 0  9999,2 52121  53.2151 205.7574 0001410 113.2681 246.8460 15.08833087 58947,6917.902,95.438,540.742,538.791,0.0
52121.0,STARLINK-3678,PAYLOAD,2023-04-02 08:10:08,15.08831346,0.0001196,53.2146,203.0833,88.0886,272.0243,-1.336e-05,-5e-06,0.0,0 STARLINK-3678,1 52121U 22029AK  23092.34037302 -.00000500  00000-0 -13360-4 0  9998,2 52121  53.2146 203.0833 0001196  88.0886 272.0243 15.08831346 59034,6917.907,95.438,540.599,538.944,0.0
52121.0,STARLINK-3678,PAYLOAD,2023-04-02 12:56:17,15.0884056,0.0001563,53.2165,202.1937,102.1583,257.9584,0.00011175,1.491e-05,0.0,0 STARLINK-3678,1 52121U 22029AK  23092.53908916  .00001491  00000-0  11175-3 0  9996,2 52121  53.2165 202.1937 0001563 102.1583 257.9584 15.08840560 59061,6917.879,95.438,540.825,538.662,0.0
52121.0,STARLINK-3678,PAYLOAD,2023-04-02 17:42:26,15.08850014,0.0001456,53.2155,201.2975,103.8695,256.2459,0.00023494,3.454e-05,0.0,0 STARLINK-3678,1 52121U 22029AK  23092.73780350  .00003454  00000-0  23494-3 0  9996,2 52121  53.2155 201.2975 0001456 103.8695 256.2459 15.08850014 59096,6917.85,95.437,540.722,538.708,0.0
52121.0,STARLINK-3678,PAYLOAD,2023-04-03 06:25:32,15.08826356,0.0001626,53.217,198.9231,91.4045,268.7134,0.00012161,1.647e-05,0.0,0 STARLINK-3678,1 52121U 22029AK  23093.26773991  .00001647  00000-0  12161-3 0  9999,2 52121  53.2170 198.9231 0001626  91.4045 268.7134 15.08826356 59179,6917.922,95.438,540.912,538.662,0.0
52121.0,STARLINK-3678,PAYLOAD,2023-04-03 11:11:42,15.08823523,0.0001512,53.2179,198.0309,95.9564,264.16,5.7988e-05,6.35e-06,0.0,0 STARLINK-3678,1 52121U 22029AK  23093.46646331  .00000635  00000-0  57988-4 0  9991,2 52121  53.2179 198.0309 0001512  95.9564 264.1600 15.08823523 59209,6917.931,95.439,540.842,538.75,0.0
52121.0,STARLINK-3678,PAYLOAD,2023-04-03 15:57:51,15.08824846,0.0001569,53.2187,197.1391,92.7411,267.376,3.7024e-05,3.01e-06,0.0,0 STARLINK-3678,1 52121U 22029AK  23093.66518420  .00000301  00000-0  37024-4 0  9999,2 52121  53.2187 197.1391 0001569  92.7411 267.3760 15.08824846 59231,6917.927,95.439,540.877,538.706,0.0
52121.0,STARLINK-3678,PAYLOAD,2023-04-04 06:16:19,15.08842965,0.0001266,53.2156,194.4598,80.1052,280.0083,0.00022462,3.289e-05,0.0,0 STARLINK-3678,1 52121U 22029AK  23094.26133526  .00003289  00000-0  22462-3 0  9993,2 52121  53.2156 194.4598 0001266  80.1052 280.0083 15.08842965 59324,6917.871,95.437,540.612,538.861,0.0
52121.0,STARLINK-3678,PAYLOAD,2023-04-04 11:02:28,15.08851057,0.0001284,53.2171,193.5698,79.693,280.4207,0.00026168,3.88e-05,0.0,0 STARLINK-3678,1 52121U 22029AK  23094.46005052  .00003880  00000-0  26168-3 0  9991,2 52121  53.2171 193.5698 0001284  79.6930 280.4207 15.08851057 59357,6917.847,95.437,540.6,538.823,0.0
52121.0,STARLINK-3678,PAYLOAD,2023-04-05 06:07:06,15.08843362,0.0001824,53.2212,190.0043,94.03,266.09,0.00022317,3.266e-05,0.0,0 STARLINK-3678,1 52121U 22029AK  23095.25493505  .00003266  00000-0  22317-3 0  9993,2 52121  53.2212 190.0043 0001824  94.0300 266.0900 15.08843362 59474,6917.87,95.437,540.997,538.473,0.0
52121.0,STARLINK-3678,PAYLOAD,2023-04-05 12:28:39,15.0883951,0.0001342,53.2156,188.8098,78.0319,282.0823,0.0001113,1.484e-05,0.0,0 STARLINK-3678,1 52121U 22029AK  23095.51989670  .00001484  00000-0  11130-3 0  9996,2 52121  53.2156 188.8098 0001342  78.0319 282.0823 15.08839510 59510,6917.882,95.438,540.675,538.819,0.0
52121.0,STARLINK-3678,PAYLOAD,2023-04-06 09:08:39,15.08836263,0.0001261,53.2153,184.9437,90.2204,269.8933,1.5605e-05,-4e-07,0.0,0 STARLINK-3678,1 52121U 22029AK  23096.38101807 -.00000040  00000-0  15605-4 0  9990,2 52121  53.2153 184.9437 0001261  90.2204 269.8933 15.08836263 59641,6917.892,95.438,540.629,538.884,0.0
52121.0,STARLINK-3678,PAYLOAD,2023-04-06 12:19:26,15.08844043,0.0001704,53.2163,184.3488,101.4333,258.685,-5.8805e-05,-1.224e-05,0.0,0 STARLINK-3678,1 52121U 22029AK  23096.51349675 -.00001224  00000-0 -58805-4 0  9997,2 52121  53.2163 184.3488 0001704 101.4333 258.6850 15.08844043 59663,6917.868,95.437,540.912,538.554,0.0
52121.0,STARLINK-3678,PAYLOAD,2023-04-06 15:30:12,15.08849347,0.0001383,53.2157,183.7532,100.1331,259.9817,-0.00011724,-2.154e-05,0.0,0 STARLINK-3678,1 52121U 22029AK  23096.64597349 -.00002154  00000-0 -11724-3 0  9995,2 52121  53.2157 183.7532 0001383 100.1331 259.9817 15.08849347 59687,6917.852,95.437,540.674,538.76,0.0
52121.0,STARLINK-3678,PAYLOAD,2023-04-07 12:10:12,15.08851159,0.0001326,53.2156,179.8884,97.6251,262.4891,0.00021657,3.162e-05,0.0,0 STARLINK-3678,1 52121U 22029AK  23097.50708465  .00003162  00000-0  21657-3 0  9998,2 52121  53.2156 179.8884 0001326  97.6251 262.4891 15.08851159 59810,6917.846,95.437,540.629,538.794,0.0
52121.0,STARLINK-3678,PAYLOAD,2023-04-08 05:39:27,15.08836866,0.0001179,53.2146,176.6184,96.6177,263.4949,7.6316e-05,9.27e-06,0.0,0 STARLINK-3678,1 52121U 22029AK  23098.23573599  .00000927  00000-0  76316-4 0  9996,2 52121  53.2146 176.6184 0001179  96.6177 263.4949 15.08836866 59924,6917.89,95.438,540.571,538.939,0.0
52121.0,STARLINK-3678,PAYLOAD,2023-04-08 10:25:36,15.08843254,0.0001268,53.2147,175.7262,99.6881,260.4254,8.8876e-05,1.127e-05,0.0,0 STARLINK-3678,1 52121U 22029AK  23098.43445257  .00001127  00000-0  88876-4 0  9994,2 52121  53.2147 175.7262 0001268  99.6881 260.4254 15.08843254 59954,6917.87,95.437,540.613,538.858,0.0
52121.0,STARLINK-3678,PAYLOAD,2023-04-08 21:33:18,15.08846648,0.0001187,53.2144,173.6451,95.9313,264.1814,0.00010592,1.399e-05,0.0,0 STARLINK-3678,1 52121U 22029AK  23098.89813022  .00001399  00000-0  10592-3 0  9993,2 52121  53.2144 173.6451 0001187  95.9313 264.1814 15.08846648 60020,6917.86,95.437,540.546,538.904,0.0
52121.0,STARLINK-3678,PAYLOAD,2023-04-09 10:16:23,15.08842964,0.0001258,53.2152,171.2664,104.9625,255.1506,0.00010553,1.392e-05,0.0,0 STARLINK-3678,1 52121U 22029AK  23099.42805133  .00001392  00000-0  10553-3 0  9997,2 52121  53.2152 171.2664 0001258 104.9625 255.1506 15.08842964 60109,6917.871,95.437,540.607,538.866,0.0
52121.0,STARLINK-3678,PAYLOAD,2023-04-09 21:24:05,15.08842722,0.0001117,53.2148,169.1855,95.9261,264.1859,0.00019318,2.788e-05,0.0,0 STARLINK-3678,1 52121U 22029AK  23099.89173232  .00002788  00000-0  19318-3 0  9994,2 52121  53.2148 169.1855 0001117  95.9261 264.1859 15.08842722 60171,6917.872,95.437,540.51,538.964,0.0
52121.0,STARLINK-3678,PAYLOAD,2023-04-10 05:21:01,15.08836853,0.0001533,53.217,167.6989,108.9733,251.1426,6.3714e-05,7.26e-06,0.0,0 STARLINK-3678,1 52121U 22029AK  23100.22293537  .00000726  00000-0  63714-4 0  9995,2 52121  53.2170 167.6989 0001533 108.9733 251.1426 15.08836853 60228,6917.89,95.438,540.816,538.694,0.0
52121.0,STARLINK-3678,PAYLOAD,2023-04-10 21:14:52,15.08843274,0.0001231,53.2162,164.7251,100.2144,259.8987,0.00020108,2.914e-05,0.0,0 STARLINK-3678,1 52121U 22029AK  23100.88533411  .00002914  00000-0  20108-3 0  9995,2 52121  53.2162 164.7251 0001231 100.2144 259.8987 15.08843274 60328,6917.87,95.437,540.587,538.884,0.0
52121.0,STARLINK-3678,PAYLOAD,2023-04-11 11:33:20,15.08856935,0.0001179,53.2146,162.0482,86.2346,273.878,0.0006476,0.00010038,0.0,0 STARLINK-3678,1 52121U 22029AK  23101.48149017  .00010038  00000-0  64760-3 0  9995,2 52121  53.2146 162.0482 0001179  86.2346 273.8780 15.08856935 60410,6917.829,95.436,540.509,538.878,0.0
52121.0,STARLINK-3678,PAYLOAD,2023-04-12 11:24:08,15.088403,0.0001162,53.2149,157.5872,82.3633,277.7491,7.1078e-05,8.44e-06,0.0,0 STARLINK-3678,1 52121U 22029AK  23102.47509337  .00000844  00000-0  71078-4 0  9995,2 52121  53.2149 157.5872 0001162  82.3633 277.7491 15.08840300 60560,6917.879,95.438,540.548,538.941,0.0
52121.0,STARLINK-3678,PAYLOAD,2023-04-13 09:39:32,15.08836715,0.0001371,53.2154,153.4245,77.3688,282.7457,2.7422e-05,1.48e-06,0.0,0 STARLINK-3678,1 52121U 22029AK  23103.40245942  .00000148  00000-0  27422-4 0  9999,2 52121  53.2154 153.4245 0001371  77.3688 282.7457 15.08836715 60700,6917.89,95.438,540.704,538.807,0.0
52121.0,STARLINK-3678,PAYLOAD,2023-04-13 14:25:41,15.08844532,0.0001296,53.2151,152.5315,82.9458,277.1681,8.3528e-05,1.042e-05,0.0,0 STARLINK-3678,1 52121U 22029AK  23103.60117598  .00001042  00000-0  83528-4 0  9999,2 52121  53.2151 152.5315 0001296  82.9458 277.1681 15.08844532 60734,6917.867,95.437,540.628,538.835,0.0
52121.0,STARLINK-3678,PAYLOAD,2023-04-14 09:30:19,15.08841133,0.0001288,53.2146,148.9625,97.5575,262.5563,0.00020314,2.947e-05,0.0,0 STARLINK-3678,1 52121U 22029AK  23104.39605960  .00002947  00000-0  20314-3 0  9999,2 52121  53.2146 148.9625 0001288  97.5575 262.5563 15.08841133 60858,6917.877,95.437,540.633,538.851,0.0
